[{"OBJECT_NAME":"MCUBED-2","OBJECT_ID":"2013-072L","EPOCH":"2026-03-09T22:49:27.284736","MEAN_MOTION":15.59782731,"ECCENTRICITY":0.0052286,"INCLINATION":120.4818,"RA_OF_ASC_NODE":108.7467,"ARG_OF_PERICENTER":309.4194,"MEAN_ANOMALY":50.2277,"EPHEMERIS_TYPE":0,"CLASSIFICATION_TYPE":"U","NORAD_CAT_ID":39472,"ELEMENT_SET_NO":999,"REV_AT_EPOCH":10128,"BSTAR":0.0011197913,"MEAN_MOTION_DOT":0.00097876,"MEAN_MOTION_DDOT":0},{"OBJECT_NAME":"STARLINK-11506 [DTC]","OBJECT_ID":"2024-254E","EPOCH":"2026-03-09T17:50:19.143168","MEAN_MOTION":15.70850915,"ECCENTRICITY":0.00022261,"INCLINATION":42.9996,"RA_OF_ASC_NODE":222.3031,"ARG_OF_PERICENTER":287.6385,"MEAN_ANOMALY":72.424,"EPHEMERIS_TYPE":0,"CLASSIFICATION_TYPE":"U","NORAD_CAT_ID":62466,"ELEMENT_SET_NO":999,"REV_AT_EPOCH":6925,"BSTAR":0.0017644357,"MEAN_MOTION_DOT":0.00232511,"MEAN_MOTION_DDOT":0}]
